start=new Date('2022-07-23T00:00:00.000Z').valueOf();
sats=[{"PERIAPSIS":"546.246","TIME_SYSTEM":"UTC","SITE":"AFETR","GP_ID":"208670318","ECCENTRICITY":"0.00014330","CLASSIFICATION_TYPE":"U","ELEMENT_SET_NO":"999","APOAPSIS":"548.231","FILE":"3519932","RA_OF_ASC_NODE":"313.6911","OBJECT_ID":"2021-044M","REV_AT_EPOCH":"6386","EPOCH":"2022-07-22T19:37:35.931936","MEAN_ELEMENT_THEORY":"SGP4","OBJECT_NAME":"STARLINK-2673","LAUNCH_DATE":"2021-05-26","DECAY_DATE":null,"REF_FRAME":"TEME","ARG_OF_PERICENTER":"69.4054","SEMIMAJOR_AXIS":"6925.374","PERIOD":"95.593","INCLINATION":"53.0553","TLE_LINE2":"2 48649  53.0553 313.6911 0001433  69.4054 290.7088 15.06391763 63865","TLE_LINE1":"1 48649U 21044M   22203.81777699  .00000249  00000-0  35621-4 0  9991","OBJECT_TYPE":"PAYLOAD","BSTAR":"0.00003562100000","COUNTRY_CODE":"US","MEAN_MOTION_DOT":"0.00000249","CENTER_NAME":"EARTH","NORAD_CAT_ID":"48649","EPHEMERIS_TYPE":"0","MEAN_MOTION_DDOT":"0.0000000000000","MEAN_MOTION":"15.06391763","MEAN_ANOMALY":"290.7088","RCS_SIZE":"LARGE"},{"SEMIMAJOR_AXIS":"6925.361","PERIOD":"95.592","INCLINATION":"53.0532","ARG_OF_PERICENTER":"76.5925","REF_FRAME":"TEME","TLE_LINE2":"2 48650  53.0532 314.9101 0001348  76.5925 283.5214 15.06396074 63827","TLE_LINE1":"1 48650U 21044N   22203.54868915  .00000296  00000-0  38755-4 0  9998","OBJECT_TYPE":"PAYLOAD","NORAD_CAT_ID":"48650","EPHEMERIS_TYPE":"0","MEAN_MOTION_DDOT":"0.0000000000000","BSTAR":"0.00003875500000","COUNTRY_CODE":"US","CENTER_NAME":"EARTH","MEAN_MOTION_DOT":"0.00000296","MEAN_ANOMALY":"283.5214","RCS_SIZE":"LARGE","MEAN_MOTION":"15.06396074","TIME_SYSTEM":"UTC","SITE":"AFETR","PERIAPSIS":"546.292","FILE":"3519932","APOAPSIS":"548.159","GP_ID":"208669585","ECCENTRICITY":"0.00013480","ELEMENT_SET_NO":"999","CLASSIFICATION_TYPE":"U","MEAN_ELEMENT_THEORY":"SGP4","OBJECT_ID":"2021-044N","RA_OF_ASC_NODE":"314.9101","REV_AT_EPOCH":"6382","EPOCH":"2022-07-22T13:10:06.742560","DECAY_DATE":null,"LAUNCH_DATE":"2021-05-26","OBJECT_NAME":"STARLINK-2672"},{"MEAN_MOTION":"15.06387922","MEAN_ANOMALY":"282.2427","RCS_SIZE":"LARGE","MEAN_MOTION_DOT":"0.00003147","CENTER_NAME":"EARTH","BSTAR":"0.00023017000000","COUNTRY_CODE":"US","MEAN_MOTION_DDOT":"0.0000000000000","NORAD_CAT_ID":"48651","EPHEMERIS_TYPE":"0","TLE_LINE1":"1 48651U 21044P   22203.81039530  .00003147  00000-0  23017-3 0  9994","TLE_LINE2":"2 48651  53.0535 313.7356 0001466  77.8726 282.2427 15.06387922 63862","OBJECT_TYPE":"PAYLOAD","ARG_OF_PERICENTER":"77.8726","REF_FRAME":"TEME","PERIOD":"95.593","INCLINATION":"53.0535","SEMIMAJOR_AXIS":"6925.386","LAUNCH_DATE":"2021-05-26","OBJECT_NAME":"STARLINK-2731","DECAY_DATE":null,"REV_AT_EPOCH":"6386","EPOCH":"2022-07-22T19:26:58.153920","RA_OF_ASC_NODE":"313.7356","OBJECT_ID":"2021-044P","MEAN_ELEMENT_THEORY":"SGP4","GP_ID":"208669835","ECCENTRICITY":"0.00014660","CLASSIFICATION_TYPE":"U","ELEMENT_SET_NO":"999","FILE":"3519932","APOAPSIS":"548.266","PERIAPSIS":"546.235","TIME_SYSTEM":"UTC","SITE":"AFETR"},{"MEAN_MOTION_DOT":"0.00000202","CENTER_NAME":"EARTH","BSTAR":"0.00003244700000","COUNTRY_CODE":"US","MEAN_MOTION_DDOT":"0.0000000000000","NORAD_CAT_ID":"48652","EPHEMERIS_TYPE":"0","MEAN_MOTION":"15.06398074","MEAN_ANOMALY":"285.8308","RCS_SIZE":"LARGE","REF_FRAME":"TEME","ARG_OF_PERICENTER":"74.2833","PERIOD":"95.592","INCLINATION":"53.0554","SEMIMAJOR_AXIS":"6925.354","TLE_LINE2":"2 48652  53.0554 313.7558 0001376  74.2833 285.8308 15.06398074 63865","TLE_LINE1":"1 48652U 21044Q   22203.80670064  .00000202  00000-0  32447-4 0  9994","OBJECT_TYPE":"PAYLOAD","REV_AT_EPOCH":"6386","EPOCH":"2022-07-22T19:21:38.935296","OBJECT_ID":"2021-044Q","RA_OF_ASC_NODE":"313.7558","MEAN_ELEMENT_THEORY":"SGP4","LAUNCH_DATE":"2021-05-26","OBJECT_NAME":"STARLINK-2727","DECAY_DATE":null,"PERIAPSIS":"546.267","TIME_SYSTEM":"UTC","SITE":"AFETR","ECCENTRICITY":"0.00013760","GP_ID":"208670086","ELEMENT_SET_NO":"999","CLASSIFICATION_TYPE":"U","APOAPSIS":"548.172","FILE":"3519932"},{"MEAN_ELEMENT_THEORY":"SGP4","RA_OF_ASC_NODE":"314.0643","OBJECT_ID":"2021-044R","EPOCH":"2022-07-22T17:40:47.424864","REV_AT_EPOCH":"6385","DECAY_DATE":null,"OBJECT_NAME":"STARLINK-2720","LAUNCH_DATE":"2021-05-26","TIME_SYSTEM":"UTC","SITE":"AFETR","PERIAPSIS":"546.292","APOAPSIS":"548.123","FILE":"3519932","GP_ID":"208670819","ECCENTRICITY":"0.00013220","ELEMENT_SET_NO":"999","CLASSIFICATION_TYPE":"U","NORAD_CAT_ID":"48653","EPHEMERIS_TYPE":"0","MEAN_MOTION_DDOT":"0.0000000000000","BSTAR":"0.00023937000000","COUNTRY_CODE":"US","CENTER_NAME":"EARTH","MEAN_MOTION_DOT":"0.00003286","MEAN_ANOMALY":"281.0820","RCS_SIZE":"LARGE","MEAN_MOTION":"15.06402019","SEMIMAJOR_AXIS":"6925.342","INCLINATION":"53.0543","PERIOD":"95.592","REF_FRAME":"TEME","ARG_OF_PERICENTER":"79.0318","TLE_LINE2":"2 48653  53.0543 314.0643 0001322  79.0318 281.0820 15.06402019 63856","TLE_LINE1":"1 48653U 21044R   22203.73666001  .00003286  00000-0  23937-3 0  9991","OBJECT_TYPE":"PAYLOAD"},{"MEAN_MOTION":"15.06403174","RCS_SIZE":"LARGE","MEAN_ANOMALY":"262.8999","MEAN_MOTION_DOT":"0.00002174","CENTER_NAME":"EARTH","COUNTRY_CODE":"US","BSTAR":"0.00016475000000","MEAN_MOTION_DDOT":"0.0000000000000","EPHEMERIS_TYPE":"0","NORAD_CAT_ID":"48654","OBJECT_TYPE":"PAYLOAD","TLE_LINE1":"1 48654U 21044S   22203.79932404  .00002174  00000-0  16475-3 0  9995","TLE_LINE2":"2 48654  53.0561 313.7810 0001231  97.2130 262.8999 15.06403174 63860","ARG_OF_PERICENTER":"97.2130","REF_FRAME":"TEME","PERIOD":"95.592","INCLINATION":"53.0561","SEMIMAJOR_AXIS":"6925.339","OBJECT_NAME":"STARLINK-2651","LAUNCH_DATE":"2021-05-26","DECAY_DATE":null,"EPOCH":"2022-07-22T19:11:01.597056","REV_AT_EPOCH":"6386","RA_OF_ASC_NODE":"313.7810","OBJECT_ID":"2021-044S","MEAN_ELEMENT_THEORY":"SGP4","CLASSIFICATION_TYPE":"U","ELEMENT_SET_NO":"999","GP_ID":"208669085","ECCENTRICITY":"0.00012310","APOAPSIS":"548.056","FILE":"3519932","PERIAPSIS":"546.351","SITE":"AFETR","TIME_SYSTEM":"UTC"},{"APOAPSIS":"548.325","FILE":"3519801","ECCENTRICITY":"0.00015520","GP_ID":"208645351","ELEMENT_SET_NO":"999","CLASSIFICATION_TYPE":"U","TIME_SYSTEM":"UTC","SITE":"AFETR","PERIAPSIS":"546.176","DECAY_DATE":null,"LAUNCH_DATE":"2021-05-26","OBJECT_NAME":"STARLINK-2657","MEAN_ELEMENT_THEORY":"SGP4","REV_AT_EPOCH":"6468","EPOCH":"2022-07-22T15:54:39.562560","OBJECT_ID":"2021-044T","RA_OF_ASC_NODE":"314.3964","TLE_LINE1":"1 48655U 21044T   22203.66295790  .00001936  00000-0  14891-3 0  9997","TLE_LINE2":"2 48655  53.0549 314.3964 0001552  59.9914 300.1229 15.06387949 64689","OBJECT_TYPE":"PAYLOAD","PERIOD":"95.593","INCLINATION":"53.0549","SEMIMAJOR_AXIS":"6925.385","REF_FRAME":"TEME","ARG_OF_PERICENTER":"59.9914","MEAN_ANOMALY":"300.1229","RCS_SIZE":"LARGE","MEAN_MOTION":"15.06387949","MEAN_MOTION_DDOT":"0.0000000000000","NORAD_CAT_ID":"48655","EPHEMERIS_TYPE":"0","CENTER_NAME":"EARTH","MEAN_MOTION_DOT":"0.00001936","BSTAR":"0.00014891000000","COUNTRY_CODE":"US"},{"MEAN_MOTION":"15.06391305","MEAN_ANOMALY":"277.1283","RCS_SIZE":"LARGE","MEAN_MOTION_DOT":"0.00000816","CENTER_NAME":"EARTH","BSTAR":"0.00007367800000","COUNTRY_CODE":"US","MEAN_MOTION_DDOT":"0.0000000000000","NORAD_CAT_ID":"48656","EPHEMERIS_TYPE":"0","TLE_LINE2":"2 48656  53.0560 315.0100 0001293  82.9853 277.1283 15.06391305 63822","TLE_LINE1":"1 48656U 21044U   22203.52657685  .00000816  00000-0  73678-4 0  9993","OBJECT_TYPE":"PAYLOAD","REF_FRAME":"TEME","ARG_OF_PERICENTER":"82.9853","INCLINATION":"53.0560","PERIOD":"95.593","SEMIMAJOR_AXIS":"6925.375","OBJECT_NAME":"STARLINK-2701","LAUNCH_DATE":"2021-05-26","DECAY_DATE":null,"REV_AT_EPOCH":"6382","EPOCH":"2022-07-22T12:38:16.239840","OBJECT_ID":"2021-044U","RA_OF_ASC_NODE":"315.0100","MEAN_ELEMENT_THEORY":"SGP4","ECCENTRICITY":"0.00012930","GP_ID":"208670587","CLASSIFICATION_TYPE":"U","ELEMENT_SET_NO":"999","APOAPSIS":"548.136","FILE":"3519932","PERIAPSIS":"546.345","TIME_SYSTEM":"UTC","SITE":"AFETR"},{"MEAN_ELEMENT_THEORY":"SGP4","OBJECT_ID":"2021-044V","RA_OF_ASC_NODE":"313.8234","EPOCH":"2022-07-22T18:55:07.647744","REV_AT_EPOCH":"6386","DECAY_DATE":null,"LAUNCH_DATE":"2021-05-26","OBJECT_NAME":"STARLINK-2734","TIME_SYSTEM":"UTC","SITE":"AFETR","PERIAPSIS":"546.148","APOAPSIS":"548.316","FILE":"3519932","ECCENTRICITY":"0.00015650","GP_ID":"208670319","CLASSIFICATION_TYPE":"U","ELEMENT_SET_NO":"999","NORAD_CAT_ID":"48657","EPHEMERIS_TYPE":"0","MEAN_MOTION_DDOT":"0.0000000000000","BSTAR":"0.00079536000000","COUNTRY_CODE":"US","MEAN_MOTION_DOT":"0.00011583","CENTER_NAME":"EARTH","MEAN_ANOMALY":"275.8611","RCS_SIZE":"LARGE","MEAN_MOTION":"15.06393960","SEMIMAJOR_AXIS":"6925.367","INCLINATION":"53.0542","PERIOD":"95.593","ARG_OF_PERICENTER":"84.2557","REF_FRAME":"TEME","TLE_LINE1":"1 48657U 21044V   22203.78828296  .00011583  00000-0  79536-3 0  9991","TLE_LINE2":"2 48657  53.0542 313.8234 0001565  84.2557 275.8611 15.06393960 63868","OBJECT_TYPE":"PAYLOAD"},{"MEAN_MOTION_DDOT":"0.0000000000000","EPHEMERIS_TYPE":"0","NORAD_CAT_ID":"48658","CENTER_NAME":"EARTH","MEAN_MOTION_DOT":"0.00000374","COUNTRY_CODE":"US","BSTAR":"0.00004399000000","RCS_SIZE":"LARGE","MEAN_ANOMALY":"290.2492","MEAN_MOTION":"15.06391054","INCLINATION":"53.0559","PERIOD":"95.593","SEMIMAJOR_AXIS":"6925.376","ARG_OF_PERICENTER":"69.8634","REF_FRAME":"TEME","OBJECT_TYPE":"PAYLOAD","TLE_LINE1":"1 48658U 21044W   22203.51920464  .00000374  00000-0  43990-4 0  9995","TLE_LINE2":"2 48658  53.0559 315.0416 0001274  69.8634 290.2492 15.06391054 63821","MEAN_ELEMENT_THEORY":"SGP4","EPOCH":"2022-07-22T12:27:39.280896","REV_AT_EPOCH":"6382","RA_OF_ASC_NODE":"315.0416","OBJECT_ID":"2021-044W","DECAY_DATE":null,"LAUNCH_DATE":"2021-05-26","OBJECT_NAME":"STARLINK-2647","SITE":"AFETR","TIME_SYSTEM":"UTC","PERIAPSIS":"546.359","APOAPSIS":"548.123","FILE":"3519932","ELEMENT_SET_NO":"999","CLASSIFICATION_TYPE":"U","GP_ID":"208669586","ECCENTRICITY":"0.00012740"}];
